NAVSTAR 43 (USA 132)    
1 24876U 97035A   26032.08935069 -.00000014  00000+0  00000+0 0  9998
2 24876  55.9185 103.8977 0097300  56.5628 304.4179  2.00563853209223
NAVSTAR 48 (USA 151)    
1 26407U 00040A   26032.91908823  .00000042  00000+0  00000+0 0  9990
2 26407  54.8815 220.5329 0123620 302.4170 230.2156  2.00568541187237
NAVSTAR 51 (USA 166)    
1 27663U 03005A   26032.50659423  .00000047  00000+0  00000+0 0  9998
2 27663  54.9135 220.3578 0148670  52.4469 318.4284  2.00567970168591
NAVSTAR 54 (USA 177)    
1 28190U 04009A   26032.51961179 -.00000007  00000+0  00000+0 0  9991
2 28190  54.9405 281.1690 0109726 168.2827   8.8894  2.00558932160227
NAVSTAR 56 (USA 180)    
1 28474U 04045A   26032.15008012 -.00000096  00000+0  00000+0 0  9992
2 28474  55.2132 330.3779 0171149 311.5015  20.7786  2.00571771155692
NAVSTAR 57 (USA 183)    
1 28874U 05038A   26032.49248554 -.00000002  00000+0  00000+0 0  9990
2 28874  54.9874 278.6541 0129817 294.7920 244.8679  2.00575010149118
NAVSTAR 58 (USA 190)    
1 29486U 06042A   26032.40039982 -.00000013  00000+0  00000+0 0  9992
2 29486  54.6978 156.7308 0106747  52.8541 319.2677  2.00552212141673
NAVSTAR 59 (USA 192)    
1 29601U 06052A   26032.79862699  .00000043  00000+0  00000+0 0  9995
2 29601  54.9618 219.3709 0088256  88.8104 272.2060  2.00549620140699
NAVSTAR 60 (USA 196)    
1 32260U 07047A   26032.10993219 -.00000017  00000+0  00000+0 0  9995
2 32260  53.9909  85.6763 0163587  85.7279 276.2110  2.00562219134085
NAVSTAR 61 (USA 199)    
1 32384U 07062A   26032.17105351 -.00000001  00000+0  00000+0 0  9991
2 32384  55.1390 279.6204 0032074 160.9315  12.3880  2.00551498132783
NAVSTAR 62 (USA 201)    
1 32711U 08012A   26032.52778506 -.00000013  00000+0  00000+0 0  9991
2 32711  54.4816 155.3453 0205114 245.6576 112.1526  2.00567799131039
NAVSTAR 64 (USA 206)    
1 35752U 09043A   26032.50739174 -.00000062  00000+0  00000+0 0  9994
2 35752  56.1271  32.7823 0051312  80.9692 281.2199  2.00562336120649
NAVSTAR 65 (USA 213)    
1 36585U 10022A   26032.34076036  .00000044  00000+0  00000+0 0  9990
2 36585  54.2938 214.0326 0127353  65.6355 293.3026  2.00555685114860
NAVSTAR 67 (USA 239)    
1 38833U 12053A   26032.20688392 -.00000018  00000+0  00000+0 0  9995
2 38833  53.5637 149.1718 0176619  64.5588 297.2231  2.00565376 96716
NAVSTAR 68 (USA 242)    
1 39166U 13023A   26032.07150058  .00000009  00000+0  00000+0 0  9990
2 39166  54.6097 274.5186 0140598  49.3774 311.9129  2.00564316 93153
NAVSTAR 69 (USA 248)    
1 39533U 14008A   26032.56677334 -.00000014  00000+0  00000+0 0  9994
2 39533  53.6365 154.8527 0081129 227.1940 132.0847  2.00551111 86961
NAVSTAR 70 (USA 251)    
1 39741U 14026A   26032.34851758 -.00000099  00000+0  00000+0 0  9998
2 39741  56.5617 336.8083 0040035 322.5575  37.1630  2.00570784 85813
